STARLINK-34346          
1 64155U 25112K   26032.68446633  .00000944  00000+0  69645-4 0  9995
2 64155  97.6047  86.0779 0000841 100.4720 259.6601 15.05650168 37893
STARLINK-34277          
1 64156U 25112L   26032.71769186  .00002625  00000+0  18608-3 0  9991
2 64156  97.6023  86.0333 0001463  89.1539 270.9855 15.05652260 37898
STARLINK-34343          
1 64157U 25112M   26032.83399915  .00005847  00000+0  40925-3 0  9990
2 64157  97.6025  86.1880 0001469  85.4866 274.6528 15.05635988 37916
STARLINK-34166          
1 64158U 25112N   26032.73430049 -.00000174  00000+0 -78595-5 0  9990
2 64158  97.6044  86.0119 0000858 102.1602 257.9721 15.05648669 37894
STARLINK-34344          
1 64159U 25112P   26032.72599638  .00002143  00000+0  15265-3 0  9999
2 64159  97.6037  86.0227 0000871 102.1156 258.0168 15.05651216 37895
STARLINK-34339          
1 64160U 25112Q   26032.70939997  .00006473  00000+0  45224-3 0  9993
2 64160  97.6022  86.0441 0000936  97.1981 262.9352 15.05664398 37894
STARLINK-34341          
1 64161U 25112R   26032.69276986  .00003838  00000+0  27001-3 0  9999
2 64161  97.6031  86.0682 0000226 160.1174 200.0062 15.05654133 37896
STARLINK-34317          
1 64162U 25112S   26032.94200690  .00005756  00000+0  40262-3 0  9992
2 64162  97.6045  86.3516 0001457  98.8069 261.3323 15.05669302 37937
STARLINK-34340          
1 64163U 25112T   26032.85337489  .00003624  00000+0  25522-3 0  9994
2 64163  97.6023  86.1610 0000972  93.9999 266.1339 15.05653002 37914
STARLINK-34263          
1 64164U 25112U   26032.71215277  .00003038  00000+0  21470-3 0  9997
2 64164  97.6018  86.0412 0000880  86.9876 273.1452 15.05645245 37893
STARLINK-33793          
1 64165U 25112V   26032.70384535  .00003808  00000+0  26792-3 0  9998
2 64165  97.6023  86.0533 0000303 148.2799 211.8446 15.05655229 37895
STARLINK-34313          
1 64166U 25112W   26032.69554410  .00005401  00000+0  37803-3 0  9994
2 64166  97.6033  86.0649 0000553 138.0849 222.0420 15.05669770 37897
STARLINK-34309          
1 64167U 25112X   26032.68723188  .00003037  00000+0  21464-3 0  9993
2 64167  97.6035  86.0763 0001171 107.2902 252.8453 15.05644040 37892
STARLINK-34303          
1 64168U 25112Y   26032.67893051  .00002307  00000+0  16402-3 0  9995
2 64168  97.6045  86.0885 0000915  88.4688 271.6644 15.05650627 37894
STARLINK-34175          
1 64169U 25112Z   26032.72876477  .00000775  00000+0  57913-4 0  9995
2 64169  97.6044  86.0195 0001530  88.6376 271.5026 15.05657727 37899
STARLINK-34177          
1 64170U 25113A   26032.94256110  .00015629  00000+0  53898-3 0  9999
2 64170  53.1577 257.0671 0001243  91.1503 268.9640 15.30182466 39592
