[{"OBJECT_NAME":"STARLINK-34346","OBJECT_ID":"2025-112K","EPOCH":"2026-02-01T16:25:37.890912","MEAN_MOTION":15.05650168,"ECCENTRICITY":8.412e-5,"INCLINATION":97.6047,"RA_OF_ASC_NODE":86.0779,"ARG_OF_PERICENTER":100.472,"MEAN_ANOMALY":259.6601,"EPHEMERIS_TYPE":0,"CLASSIFICATION_TYPE":"U","NORAD_CAT_ID":64155,"ELEMENT_SET_NO":999,"REV_AT_EPOCH":3789,"BSTAR":6.9645222e-5,"MEAN_MOTION_DOT":9.44e-6,"MEAN_MOTION_DDOT":0},{"OBJECT_NAME":"STARLINK-34277","OBJECT_ID":"2025-112L","EPOCH":"2026-02-01T17:13:28.576704","MEAN_MOTION":15.0565226,"ECCENTRICITY":0.00014633,"INCLINATION":97.6023,"RA_OF_ASC_NODE":86.0333,"ARG_OF_PERICENTER":89.1539,"MEAN_ANOMALY":270.9855,"EPHEMERIS_TYPE":0,"CLASSIFICATION_TYPE":"U","NORAD_CAT_ID":64156,"ELEMENT_SET_NO":999,"REV_AT_EPOCH":3789,"BSTAR":0.00018607505,"MEAN_MOTION_DOT":2.625e-5,"MEAN_MOTION_DDOT":0},{"OBJECT_NAME":"STARLINK-34343","OBJECT_ID":"2025-112M","EPOCH":"2026-02-01T20:00:57.526560","MEAN_MOTION":15.05635988,"ECCENTRICITY":0.00014692,"INCLINATION":97.6025,"RA_OF_ASC_NODE":86.188,"ARG_OF_PERICENTER":85.4866,"MEAN_ANOMALY":274.6528,"EPHEMERIS_TYPE":0,"CLASSIFICATION_TYPE":"U","NORAD_CAT_ID":64157,"ELEMENT_SET_NO":999,"REV_AT_EPOCH":3791,"BSTAR":0.00040925229,"MEAN_MOTION_DOT":5.847e-5,"MEAN_MOTION_DDOT":0},{"OBJECT_NAME":"STARLINK-34166","OBJECT_ID":"2025-112N","EPOCH":"2026-02-01T17:37:23.562336","MEAN_MOTION":15.05648669,"ECCENTRICITY":8.586e-5,"INCLINATION":97.6044,"RA_OF_ASC_NODE":86.0119,"ARG_OF_PERICENTER":102.1602,"MEAN_ANOMALY":257.9721,"EPHEMERIS_TYPE":0,"CLASSIFICATION_TYPE":"U","NORAD_CAT_ID":64158,"ELEMENT_SET_NO":999,"REV_AT_EPOCH":3789,"BSTAR":-7.859457e-6,"MEAN_MOTION_DOT":-1.74e-6,"MEAN_MOTION_DDOT":0},{"OBJECT_NAME":"STARLINK-34344","OBJECT_ID":"2025-112P","EPOCH":"2026-02-01T17:25:26.087232","MEAN_MOTION":15.05651216,"ECCENTRICITY":8.71e-5,"INCLINATION":97.6037,"RA_OF_ASC_NODE":86.0227,"ARG_OF_PERICENTER":102.1156,"MEAN_ANOMALY":258.0168,"EPHEMERIS_TYPE":0,"CLASSIFICATION_TYPE":"U","NORAD_CAT_ID":64159,"ELEMENT_SET_NO":999,"REV_AT_EPOCH":3789,"BSTAR":0.00015264913,"MEAN_MOTION_DOT":2.143e-5,"MEAN_MOTION_DDOT":0},{"OBJECT_NAME":"STARLINK-34339","OBJECT_ID":"2025-112Q","EPOCH":"2026-02-01T17:01:32.157408","MEAN_MOTION":15.05664398,"ECCENTRICITY":9.36e-5,"INCLINATION":97.6022,"RA_OF_ASC_NODE":86.0441,"ARG_OF_PERICENTER":97.1981,"MEAN_ANOMALY":262.9352,"EPHEMERIS_TYPE":0,"CLASSIFICATION_TYPE":"U","NORAD_CAT_ID":64160,"ELEMENT_SET_NO":999,"REV_AT_EPOCH":3789,"BSTAR":0.00045223648,"MEAN_MOTION_DOT":6.473e-5,"MEAN_MOTION_DDOT":0},{"OBJECT_NAME":"STARLINK-34341","OBJECT_ID":"2025-112R","EPOCH":"2026-02-01T16:37:35.315904","MEAN_MOTION":15.05654133,"ECCENTRICITY":2.266e-5,"INCLINATION":97.6031,"RA_OF_ASC_NODE":86.0682,"ARG_OF_PERICENTER":160.1174,"MEAN_ANOMALY":200.0062,"EPHEMERIS_TYPE":0,"CLASSIFICATION_TYPE":"U","NORAD_CAT_ID":64161,"ELEMENT_SET_NO":999,"REV_AT_EPOCH":3789,"BSTAR":0.00027001397,"MEAN_MOTION_DOT":3.838e-5,"MEAN_MOTION_DDOT":0},{"OBJECT_NAME":"STARLINK-34317","OBJECT_ID":"2025-112S","EPOCH":"2026-02-01T22:36:29.396160","MEAN_MOTION":15.05669302,"ECCENTRICITY":0.00014572,"INCLINATION":97.6045,"RA_OF_ASC_NODE":86.3516,"ARG_OF_PERICENTER":98.8069,"MEAN_ANOMALY":261.3323,"EPHEMERIS_TYPE":0,"CLASSIFICATION_TYPE":"U","NORAD_CAT_ID":64162,"ELEMENT_SET_NO":999,"REV_AT_EPOCH":3793,"BSTAR":0.00040261541,"MEAN_MOTION_DOT":5.756e-5,"MEAN_MOTION_DDOT":0},{"OBJECT_NAME":"STARLINK-34340","OBJECT_ID":"2025-112T","EPOCH":"2026-02-01T20:28:51.590496","MEAN_MOTION":15.05653002,"ECCENTRICITY":9.725e-5,"INCLINATION":97.6023,"RA_OF_ASC_NODE":86.161,"ARG_OF_PERICENTER":93.9999,"MEAN_ANOMALY":266.1339,"EPHEMERIS_TYPE":0,"CLASSIFICATION_TYPE":"U","NORAD_CAT_ID":64163,"ELEMENT_SET_NO":999,"REV_AT_EPOCH":3791,"BSTAR":0.00025521517,"MEAN_MOTION_DOT":3.624e-5,"MEAN_MOTION_DDOT":0},{"OBJECT_NAME":"STARLINK-34263","OBJECT_ID":"2025-112U","EPOCH":"2026-02-01T17:05:29.999328","MEAN_MOTION":15.05645245,"ECCENTRICITY":8.801e-5,"INCLINATION":97.6018,"RA_OF_ASC_NODE":86.0412,"ARG_OF_PERICENTER":86.9876,"MEAN_ANOMALY":273.1452,"EPHEMERIS_TYPE":0,"CLASSIFICATION_TYPE":"U","NORAD_CAT_ID":64164,"ELEMENT_SET_NO":999,"REV_AT_EPOCH":3789,"BSTAR":0.00021469671,"MEAN_MOTION_DOT":3.038e-5,"MEAN_MOTION_DDOT":0},{"OBJECT_NAME":"STARLINK-33793","OBJECT_ID":"2025-112V","EPOCH":"2026-02-01T16:53:32.238240","MEAN_MOTION":15.05655229,"ECCENTRICITY":3.037e-5,"INCLINATION":97.6023,"RA_OF_ASC_NODE":86.0533,"ARG_OF_PERICENTER":148.2799,"MEAN_ANOMALY":211.8446,"EPHEMERIS_TYPE":0,"CLASSIFICATION_TYPE":"U","NORAD_CAT_ID":64165,"ELEMENT_SET_NO":999,"REV_AT_EPOCH":3789,"BSTAR":0.00026792496,"MEAN_MOTION_DOT":3.808e-5,"MEAN_MOTION_DDOT":0},{"OBJECT_NAME":"STARLINK-34313","OBJECT_ID":"2025-112W","EPOCH":"2026-02-01T16:41:35.010240","MEAN_MOTION":15.0566977,"ECCENTRICITY":5.534e-5,"INCLINATION":97.6033,"RA_OF_ASC_NODE":86.0649,"ARG_OF_PERICENTER":138.0849,"MEAN_ANOMALY":222.042,"EPHEMERIS_TYPE":0,"CLASSIFICATION_TYPE":"U","NORAD_CAT_ID":64166,"ELEMENT_SET_NO":999,"REV_AT_EPOCH":3789,"BSTAR":0.00037803288,"MEAN_MOTION_DOT":5.401e-5,"MEAN_MOTION_DDOT":0},{"OBJECT_NAME":"STARLINK-34309","OBJECT_ID":"2025-112X","EPOCH":"2026-02-01T16:29:36.834432","MEAN_MOTION":15.0564404,"ECCENTRICITY":0.0001171,"INCLINATION":97.6035,"RA_OF_ASC_NODE":86.0763,"ARG_OF_PERICENTER":107.2902,"MEAN_ANOMALY":252.8453,"EPHEMERIS_TYPE":0,"CLASSIFICATION_TYPE":"U","NORAD_CAT_ID":64167,"ELEMENT_SET_NO":999,"REV_AT_EPOCH":3789,"BSTAR":0.00021463951,"MEAN_MOTION_DOT":3.037e-5,"MEAN_MOTION_DDOT":0},{"OBJECT_NAME":"STARLINK-34303","OBJECT_ID":"2025-112Y","EPOCH":"2026-02-01T16:17:39.596064","MEAN_MOTION":15.05650627,"ECCENTRICITY":9.15e-5,"INCLINATION":97.6045,"RA_OF_ASC_NODE":86.0885,"ARG_OF_PERICENTER":88.4688,"MEAN_ANOMALY":271.6644,"EPHEMERIS_TYPE":0,"CLASSIFICATION_TYPE":"U","NORAD_CAT_ID":64168,"ELEMENT_SET_NO":999,"REV_AT_EPOCH":3789,"BSTAR":0.00016401913,"MEAN_MOTION_DOT":2.307e-5,"MEAN_MOTION_DDOT":0},{"OBJECT_NAME":"STARLINK-34175","OBJECT_ID":"2025-112Z","EPOCH":"2026-02-01T17:29:25.276128","MEAN_MOTION":15.05657727,"ECCENTRICITY":0.00015306,"INCLINATION":97.6044,"RA_OF_ASC_NODE":86.0195,"ARG_OF_PERICENTER":88.6376,"MEAN_ANOMALY":271.5026,"EPHEMERIS_TYPE":0,"CLASSIFICATION_TYPE":"U","NORAD_CAT_ID":64169,"ELEMENT_SET_NO":999,"REV_AT_EPOCH":3789,"BSTAR":5.7912786e-5,"MEAN_MOTION_DOT":7.75e-6,"MEAN_MOTION_DDOT":0},{"OBJECT_NAME":"STARLINK-34177","OBJECT_ID":"2025-113A","EPOCH":"2026-02-01T22:37:17.279040","MEAN_MOTION":15.30182466,"ECCENTRICITY":0.0001243,"INCLINATION":53.1577,"RA_OF_ASC_NODE":257.0671,"ARG_OF_PERICENTER":91.1503,"MEAN_ANOMALY":268.964,"EPHEMERIS_TYPE":0,"CLASSIFICATION_TYPE":"U","NORAD_CAT_ID":64170,"ELEMENT_SET_NO":999,"REV_AT_EPOCH":3959,"BSTAR":0.00053897658,"MEAN_MOTION_DOT":0.00015629,"MEAN_MOTION_DDOT":0}]
